47282,ONEWEB-0136,2020,109.72,148.0,+,87.88,Active,1,LEO,Russia,UK,Commercial,Communications,Soyuz,1 47282U 20100AA  25063.49438578  .00000390  00000+0  10495-2 0  9992,2 47282  87.8802  84.1331 0002186  80.3069 279.8307 13.12443498203056,13.12443498,0.0002186,LEO
47283,ONEWEB-0137,2020,109.72,148.0,+,87.88,Active,1,LEO,Russia,UK,Commercial,Communications,Soyuz,1 47283U 20100AB  25063.75712501 -.00004157  00000+0 -11594-1 0  9990,2 47283  87.8798  84.0933 0001783  90.8953 269.2380 13.12458501202995,13.12458501,0.0001783,LEO
47284,ONEWEB-0138,2020,109.72,148.0,+,87.88,Active,1,LEO,Russia,UK,Commercial,Communications,Soyuz,1 47284U 20100AC  25063.50736835  .00000191  00000+0  49518-3 0  9991,2 47284  87.8798  84.1552 0001926  88.5515 271.5834 13.12439873203049,13.12439873,0.0001926,LEO
47285,ONEWEB-0139,2020,109.72,148.0,+,87.88,Active,1,LEO,Russia,UK,Commercial,Communications,Soyuz,1 47285U 20100AD  25063.47017155 -.00000573  00000+0 -16274-2 0  9993,2 47285  87.8805  84.1467 0001921  91.8167 268.3181 13.12441906203116,13.12441906,0.0001921,LEO
47286,ONEWEB-0140,2020,109.72,148.0,+,87.88,Active,1,LEO,Russia,UK,Commercial,Communications,Soyuz,1 47286U 20100AE  25063.50086256  .00000453  00000+0  12228-2 0  9996,2 47286  87.8798  84.1328 0001973  88.8875 271.2479 13.12444627203085,13.12444627,0.0001973,LEO
47287,ONEWEB-0141,2020,109.72,148.0,+,87.88,Active,1,LEO,Russia,UK,Commercial,Communications,Soyuz,1 47287U 20100AF  25063.77486926 -.00000386  00000+0 -11093-2 0  9990,2 47287  87.8801  84.0936 0001748  97.6057 262.5270 13.12445514203106,13.12445514,0.0001748,LEO
47288,ONEWEB-0142,2020,109.72,148.0,+,87.88,Active,1,LEO,Russia,UK,Commercial,Communications,Soyuz,1 47288U 20100AG  25063.74337558  .00000316  00000+0  84242-3 0  9992,2 47288  87.8799  84.0807 0001697  84.8250 275.3073 13.12442524203095,13.12442524,0.0001697,LEO
47289,ONEWEB-0143,2020,109.72,148.0,+,87.88,Active,1,LEO,Russia,UK,Commercial,Communications,Soyuz,1 47289U 20100AH  25063.46841528 -.00000379  00000+0 -10884-2 0  9990,2 47289  87.8801  84.1589 0001902  91.9319 268.2027 13.12443804203038,13.12443804,0.0001902,LEO
